[{"OBJECT_NAME":"ONEWEB-0580","OBJECT_ID":"2022-166G","EPOCH":"2026-03-09T22:13:41.130336","MEAN_MOTION":13.21825922,"ECCENTRICITY":0.00012905,"INCLINATION":87.9161,"RA_OF_ASC_NODE":263.7757,"ARG_OF_PERICENTER":84.2126,"MEAN_ANOMALY":275.9155,"EPHEMERIS_TYPE":0,"CLASSIFICATION_TYPE":"U","NORAD_CAT_ID":54648,"ELEMENT_SET_NO":999,"REV_AT_EPOCH":15843,"BSTAR":-0.00011098906,"MEAN_MOTION_DOT":-3.3e-7,"MEAN_MOTION_DDOT":0},{"OBJECT_NAME":"DELTA 1 DEB","OBJECT_ID":"1975-052CX","EPOCH":"2026-03-09T22:09:37.522944","MEAN_MOTION":13.36483998,"ECCENTRICITY":0.02237644,"INCLINATION":100.3012,"RA_OF_ASC_NODE":78.114,"ARG_OF_PERICENTER":260.6784,"MEAN_ANOMALY":167.8462,"EPHEMERIS_TYPE":0,"CLASSIFICATION_TYPE":"U","NORAD_CAT_ID":21377,"ELEMENT_SET_NO":999,"REV_AT_EPOCH":68025,"BSTAR":0.0026656576,"MEAN_MOTION_DOT":1.539e-5,"MEAN_MOTION_DDOT":0}]
